start=new Date('2021-10-31T00:00:00.000Z').valueOf();
sats=[{"EPHEMERIS_TYPE":"0","LAUNCH_DATE":"2020-08-07","SEMIMAJOR_AXIS":"6925.362","MEAN_MOTION_DDOT":"0.0000000000000","OBJECT_ID":"2020-055AY","DECAY_DATE":null,"OBJECT_TYPE":"PAYLOAD","ECCENTRICITY":"0.00011700","TLE_LINE1":"1 46073U 20055AY  21303.67753916  .00001670  00000-0  13099-3 0  9994","TIME_SYSTEM":"UTC","RA_OF_ASC_NODE":"38.9601","ARG_OF_PERICENTER":"83.8517","FILE":"3193109","NORAD_CAT_ID":"46073","MEAN_ELEMENT_THEORY":"SGP4","RCS_SIZE":"LARGE","CENTER_NAME":"EARTH","CLASSIFICATION_TYPE":"U","BSTAR":"0.00013099000000","OBJECT_NAME":"STARLINK-1542","INCLINATION":"53.0570","EPOCH":"2021-10-30T16:15:39.383424","PERIAPSIS":"546.417","MEAN_MOTION_DOT":"0.00001670","PERIOD":"95.592","ELEMENT_SET_NO":"999","GP_ID":"188520910","COUNTRY_CODE":"US","APOAPSIS":"548.037","MEAN_ANOMALY":"276.2606","REF_FRAME":"TEME","SITE":"AFETR","TLE_LINE2":"2 46073  53.0570  38.9601 0001170  83.8517 276.2606 15.06395662 68972","REV_AT_EPOCH":"6897","MEAN_MOTION":"15.06395662"},{"FILE":"3193098","ARG_OF_PERICENTER":"86.3139","RA_OF_ASC_NODE":"39.0189","TIME_SYSTEM":"UTC","TLE_LINE1":"1 46074U 20055AZ  21303.66279602 -.00000298  00000-0 -10963-5 0  9995","CENTER_NAME":"EARTH","RCS_SIZE":"LARGE","NORAD_CAT_ID":"46074","MEAN_ELEMENT_THEORY":"SGP4","OBJECT_ID":"2020-055AZ","MEAN_MOTION_DDOT":"0.0000000000000","LAUNCH_DATE":"2020-08-07","SEMIMAJOR_AXIS":"6925.360","EPHEMERIS_TYPE":"0","ECCENTRICITY":"0.00012870","OBJECT_TYPE":"PAYLOAD","DECAY_DATE":null,"APOAPSIS":"548.116","COUNTRY_CODE":"US","GP_ID":"188521468","MEAN_MOTION":"15.06396423","TLE_LINE2":"2 46074  53.0554  39.0189 0001287  86.3139 273.7997 15.06396423 68976","REV_AT_EPOCH":"6897","SITE":"AFETR","REF_FRAME":"TEME","MEAN_ANOMALY":"273.7997","OBJECT_NAME":"STARLINK-1549","BSTAR":"-0.00000109630000","CLASSIFICATION_TYPE":"U","PERIOD":"95.592","ELEMENT_SET_NO":"999","PERIAPSIS":"546.333","MEAN_MOTION_DOT":"-0.00000298","EPOCH":"2021-10-30T15:54:25.576128","INCLINATION":"53.0554"},{"PERIAPSIS":"546.339","MEAN_MOTION_DOT":"0.00002064","PERIOD":"95.592","ELEMENT_SET_NO":"999","INCLINATION":"53.0575","EPOCH":"2021-10-30T13:20:29.572512","CLASSIFICATION_TYPE":"U","OBJECT_NAME":"STARLINK-1551","BSTAR":"0.00015744000000","REF_FRAME":"TEME","SITE":"AFETR","MEAN_ANOMALY":"270.1991","MEAN_MOTION":"15.06400750","TLE_LINE2":"2 46075  53.0575  39.5102 0001260  89.9142 270.1991 15.06400750 69485","REV_AT_EPOCH":"6948","APOAPSIS":"548.084","GP_ID":"188513981","COUNTRY_CODE":"US","DECAY_DATE":null,"OBJECT_TYPE":"PAYLOAD","ECCENTRICITY":"0.00012600","SEMIMAJOR_AXIS":"6925.346","LAUNCH_DATE":"2020-08-07","EPHEMERIS_TYPE":"0","OBJECT_ID":"2020-055BA","MEAN_MOTION_DDOT":"0.0000000000000","RCS_SIZE":"LARGE","CENTER_NAME":"EARTH","NORAD_CAT_ID":"46075","MEAN_ELEMENT_THEORY":"SGP4","ARG_OF_PERICENTER":"89.9142","FILE":"3192905","TLE_LINE1":"1 46075U 20055BA  21303.55589783  .00002064  00000-0  15744-3 0  9999","RA_OF_ASC_NODE":"39.5102","TIME_SYSTEM":"UTC"},{"FILE":"3193107","ARG_OF_PERICENTER":"91.6495","TLE_LINE1":"1 46076U 20055BB  21303.78074349  .00001038  00000-0  88538-4 0  9994","TIME_SYSTEM":"UTC","RA_OF_ASC_NODE":"38.4956","RCS_SIZE":"LARGE","CENTER_NAME":"EARTH","NORAD_CAT_ID":"46076","MEAN_ELEMENT_THEORY":"SGP4","LAUNCH_DATE":"2020-08-07","SEMIMAJOR_AXIS":"6925.337","EPHEMERIS_TYPE":"0","OBJECT_ID":"2020-055BB","MEAN_MOTION_DDOT":"0.0000000000000","DECAY_DATE":null,"OBJECT_TYPE":"PAYLOAD","ECCENTRICITY":"0.00010820","APOAPSIS":"547.951","GP_ID":"188521904","COUNTRY_CODE":"US","REF_FRAME":"TEME","SITE":"AFETR","MEAN_ANOMALY":"268.4618","MEAN_MOTION":"15.06403819","REV_AT_EPOCH":"6898","TLE_LINE2":"2 46076  53.0558  38.4956 0001082  91.6495 268.4618 15.06403819 68984","CLASSIFICATION_TYPE":"U","OBJECT_NAME":"STARLINK-1552","BSTAR":"0.00008853800000","PERIAPSIS":"546.453","MEAN_MOTION_DOT":"0.00001038","ELEMENT_SET_NO":"999","PERIOD":"95.592","INCLINATION":"53.0558","EPOCH":"2021-10-30T18:44:16.237536"},{"EPHEMERIS_TYPE":"0","LAUNCH_DATE":"2020-08-07","SEMIMAJOR_AXIS":"6925.357","MEAN_MOTION_DDOT":"0.0000000000000","OBJECT_ID":"2020-055BC","DECAY_DATE":null,"OBJECT_TYPE":"PAYLOAD","ECCENTRICITY":"0.00012060","TLE_LINE1":"1 46077U 20055BC  21303.76231216  .00001722  00000-0  13449-3 0  9999","RA_OF_ASC_NODE":"38.5695","TIME_SYSTEM":"UTC","FILE":"3193082","ARG_OF_PERICENTER":"88.0752","MEAN_ELEMENT_THEORY":"SGP4","NORAD_CAT_ID":"46077","RCS_SIZE":"LARGE","CENTER_NAME":"EARTH","CLASSIFICATION_TYPE":"U","BSTAR":"0.00013449000000","OBJECT_NAME":"STARLINK-1559","INCLINATION":"53.0550","EPOCH":"2021-10-30T18:17:43.770624","MEAN_MOTION_DOT":"0.00001722","PERIAPSIS":"546.387","ELEMENT_SET_NO":"999","PERIOD":"95.592","GP_ID":"188521220","COUNTRY_CODE":"US","APOAPSIS":"548.057","MEAN_ANOMALY":"272.0375","REF_FRAME":"TEME","SITE":"AFETR","REV_AT_EPOCH":"6898","TLE_LINE2":"2 46077  53.0550  38.5695 0001206  88.0752 272.0375 15.06397277 68983","MEAN_MOTION":"15.06397277"},{"REF_FRAME":"TEME","SITE":"AFETR","MEAN_ANOMALY":"282.5632","MEAN_MOTION":"15.06400455","TLE_LINE2":"2 46078  53.0555  39.5684 0001190  77.5490 282.5632 15.06400455 69450","REV_AT_EPOCH":"6945","APOAPSIS":"548.036","GP_ID":"188514232","COUNTRY_CODE":"US","PERIAPSIS":"546.388","MEAN_MOTION_DOT":"0.00002855","PERIOD":"95.592","ELEMENT_SET_NO":"999","INCLINATION":"53.0555","EPOCH":"2021-10-30T12:59:16.119456","CLASSIFICATION_TYPE":"U","OBJECT_NAME":"STARLINK-1563","BSTAR":"0.00021045000000","RCS_SIZE":"LARGE","CENTER_NAME":"EARTH","MEAN_ELEMENT_THEORY":"SGP4","NORAD_CAT_ID":"46078","FILE":"3192905","ARG_OF_PERICENTER":"77.5490","TLE_LINE1":"1 46078U 20055BD  21303.54115879  .00002855  00000-0  21045-3 0  9991","TIME_SYSTEM":"UTC","RA_OF_ASC_NODE":"39.5684","DECAY_DATE":null,"OBJECT_TYPE":"PAYLOAD","ECCENTRICITY":"0.00011900","SEMIMAJOR_AXIS":"6925.347","LAUNCH_DATE":"2020-08-07","EPHEMERIS_TYPE":"0","OBJECT_ID":"2020-055BD","MEAN_MOTION_DDOT":"0.0000000000000"},{"DECAY_DATE":null,"ECCENTRICITY":"0.00012740","OBJECT_TYPE":"PAYLOAD","EPHEMERIS_TYPE":"0","SEMIMAJOR_AXIS":"6925.341","LAUNCH_DATE":"2020-08-07","MEAN_MOTION_DDOT":"0.0000000000000","OBJECT_ID":"2020-055BE","NORAD_CAT_ID":"46079","MEAN_ELEMENT_THEORY":"SGP4","CENTER_NAME":"EARTH","RCS_SIZE":"LARGE","RA_OF_ASC_NODE":"39.3013","TIME_SYSTEM":"UTC","TLE_LINE1":"1 46079U 20055BE  21303.60013964  .00003233  00000-0  23581-3 0  9999","FILE":"3193115","ARG_OF_PERICENTER":"71.3627","EPOCH":"2021-10-30T14:24:12.064896","INCLINATION":"53.0555","ELEMENT_SET_NO":"999","PERIOD":"95.592","PERIAPSIS":"546.324","MEAN_MOTION_DOT":"0.00003233","CLASSIFICATION_TYPE":"U","BSTAR":"0.00023581000000","OBJECT_NAME":"STARLINK-1566","MEAN_ANOMALY":"288.7500","SITE":"AFETR","REF_FRAME":"TEME","REV_AT_EPOCH":"6896","TLE_LINE2":"2 46079  53.0555  39.3013 0001274  71.3627 288.7500 15.06402533 68968","MEAN_MOTION":"15.06402533","COUNTRY_CODE":"US","GP_ID":"188521994","APOAPSIS":"548.088"},{"PERIAPSIS":"546.190","MEAN_MOTION_DOT":"0.00001366","ELEMENT_SET_NO":"999","PERIOD":"95.592","INCLINATION":"53.0569","EPOCH":"2021-10-30T15:01:20.600832","CLASSIFICATION_TYPE":"U","OBJECT_NAME":"STARLINK-1568","BSTAR":"0.00011056000000","REF_FRAME":"TEME","SITE":"AFETR","MEAN_ANOMALY":"276.5388","MEAN_MOTION":"15.06397301","REV_AT_EPOCH":"6896","TLE_LINE2":"2 46080  53.0569  39.1947 0001490  83.5770 276.5388 15.06397301 68968","APOAPSIS":"548.254","GP_ID":"188522505","COUNTRY_CODE":"US","DECAY_DATE":null,"OBJECT_TYPE":"PAYLOAD","ECCENTRICITY":"0.00014900","SEMIMAJOR_AXIS":"6925.357","LAUNCH_DATE":"2020-08-07","EPHEMERIS_TYPE":"0","OBJECT_ID":"2020-055BF","MEAN_MOTION_DDOT":"0.0000000000000","RCS_SIZE":"LARGE","CENTER_NAME":"EARTH","NORAD_CAT_ID":"46080","MEAN_ELEMENT_THEORY":"SGP4","ARG_OF_PERICENTER":"83.5770","FILE":"3193119","TLE_LINE1":"1 46080U 20055BF  21303.62593288  .00001366  00000-0  11056-3 0  9994","TIME_SYSTEM":"UTC","RA_OF_ASC_NODE":"39.1947"},{"PERIAPSIS":"546.295","MEAN_MOTION_DOT":"0.00003029","ELEMENT_SET_NO":"999","PERIOD":"95.592","EPOCH":"2021-10-30T15:49:06.700512","INCLINATION":"53.0576","OBJECT_NAME":"STARLINK-1571","BSTAR":"0.00022217000000","CLASSIFICATION_TYPE":"U","MEAN_MOTION":"15.06402241","REV_AT_EPOCH":"6896","TLE_LINE2":"2 46081  53.0576  39.0365 0001316  82.7488 277.3651 15.06402241 68966","REF_FRAME":"TEME","SITE":"AFETR","MEAN_ANOMALY":"277.3651","APOAPSIS":"548.118","GP_ID":"188522007","COUNTRY_CODE":"US","OBJECT_TYPE":"PAYLOAD","ECCENTRICITY":"0.00013160","DECAY_DATE":null,"OBJECT_ID":"2020-055BG","MEAN_MOTION_DDOT":"0.0000000000000","SEMIMAJOR_AXIS":"6925.342","LAUNCH_DATE":"2020-08-07","EPHEMERIS_TYPE":"0","RCS_SIZE":"LARGE","CENTER_NAME":"EARTH","NORAD_CAT_ID":"46081","MEAN_ELEMENT_THEORY":"SGP4","ARG_OF_PERICENTER":"82.7488","FILE":"3193119","TLE_LINE1":"1 46081U 20055BG  21303.65910533  .00003029  00000-0  22217-3 0  9993","RA_OF_ASC_NODE":"39.0365","TIME_SYSTEM":"UTC"},{"DECAY_DATE":null,"OBJECT_TYPE":"PAYLOAD","ECCENTRICITY":"0.00012910","LAUNCH_DATE":"2020-08-07","SEMIMAJOR_AXIS":"6925.362","EPHEMERIS_TYPE":"0","OBJECT_ID":"2020-055BH","MEAN_MOTION_DDOT":"0.0000000000000","RCS_SIZE":"LARGE","CENTER_NAME":"EARTH","MEAN_ELEMENT_THEORY":"SGP4","NORAD_CAT_ID":"46082","FILE":"3192905","ARG_OF_PERICENTER":"96.2594","TLE_LINE1":"1 46082U 20055BH  21303.41583945 -.00001049  00000-0 -51568-4 0  9995","RA_OF_ASC_NODE":"40.1266","TIME_SYSTEM":"UTC","PERIAPSIS":"546.333","MEAN_MOTION_DOT":"-0.00001049","PERIOD":"95.592","ELEMENT_SET_NO":"999","EPOCH":"2021-10-30T09:58:48.528480","INCLINATION":"53.0546","CLASSIFICATION_TYPE":"U","OBJECT_NAME":"STARLINK-1578","BSTAR":"-0.00005156800000","REF_FRAME":"TEME","SITE":"AFETR","MEAN_ANOMALY":"263.8541","MEAN_MOTION":"15.06395488","REV_AT_EPOCH":"6946","TLE_LINE2":"2 46082  53.0546  40.1266 0001291  96.2594 263.8541 15.06395488 69465","APOAPSIS":"548.121","GP_ID":"188513733","COUNTRY_CODE":"US"}];
